[
    {
        "Altitude(m)": 607911.0207161391,
        "Argument of Periapsis(deg)": 0.0,
        "Eccentricity": 0.0,
        "Inclination(deg)": 60.0,
        "Latitude(deg)": -14.293010072402357,
        "Longitude(deg)": -126.55736620806985,
        "Mean Anomaly(deg)": 196.36360000000002,
        "RAAN(deg)": 145.0,
        "Satellite Name": "Test1 650",
        "Satellite Number": 650,
        "Semi-Major Axis(m)": 6980739.136638005,
        "Time(s)": 0
    },
    {
        "Altitude(m)": 608060.2547578722,
        "Argument of Periapsis(deg)": 0.00010418945913296404,
        "Eccentricity": 0.0,
        "Inclination(deg)": 60.0,
        "Latitude(deg)": -14.826671744386479,
        "Longitude(deg)": -126.2687572167724,
        "Mean Anomaly(deg)": 196.9837061454618,
        "RAAN(deg)": 144.99957995086027,
        "Satellite Name": "Test1 650",
        "Satellite Number": 650,
        "Semi-Major Axis(m)": 6980739.136638005,
        "Time(s)": 10
    }
]